CCSDS_OMM_VERS = 2.0
CREATION_DATE  = 
ORIGINATOR     = 

OBJECT_NAME    = COSMOS 1933
OBJECT_ID      = 1988-020A
CENTER_NAME    = EARTH
REF_FRAME      = TEME
TIME_SYSTEM    = UTC
MEAN_ELEMENT_THEORY = SGP/SGP4

EPOCH          = 2026-02-15T12:11:28.021344
MEAN_MOTION    = 15.17786603
ECCENTRICITY   = .0002633
INCLINATION    = 82.5112
RA_OF_ASC_NODE = 272.8599
ARG_OF_PERICENTER = 286.4341
MEAN_ANOMALY   = 73.6603

EPHEMERIS_TYPE = 0
CLASSIFICATION_TYPE = U
NORAD_CAT_ID   = 18958
ELEMENT_SET_NO = 999
REV_AT_EPOCH   = 4686
BSTAR          = .24789E-3
MEAN_MOTION_DOT = .5037E-4
MEAN_MOTION_DDOT = 0

CCSDS_OMM_VERS = 2.0
CREATION_DATE  = 
ORIGINATOR     = 

OBJECT_NAME    = SL-3 R/B
OBJECT_ID      = 1988-032B
CENTER_NAME    = EARTH
REF_FRAME      = TEME
TIME_SYSTEM    = UTC
MEAN_ELEMENT_THEORY = SGP/SGP4

EPOCH          = 2026-02-15T11:28:19.713216
MEAN_MOTION    = 15.19622756
ECCENTRICITY   = .0024704
INCLINATION    = 97.5152
RA_OF_ASC_NODE = 29.8182
ARG_OF_PERICENTER = 314.7960
MEAN_ANOMALY   = 45.1265

EPHEMERIS_TYPE = 0
CLASSIFICATION_TYPE = U
NORAD_CAT_ID   = 19046
ELEMENT_SET_NO = 999
REV_AT_EPOCH   = 4873
BSTAR          = .33992E-3
MEAN_MOTION_DOT = .7231E-4
MEAN_MOTION_DDOT = 0

CCSDS_OMM_VERS = 2.0
CREATION_DATE  = 
ORIGINATOR     = 

OBJECT_NAME    = SL-16 R/B
OBJECT_ID      = 1988-039B
CENTER_NAME    = EARTH
REF_FRAME      = TEME
TIME_SYSTEM    = UTC
MEAN_ELEMENT_THEORY = SGP/SGP4

EPOCH          = 2026-02-15T12:03:53.398368
MEAN_MOTION    = 14.19613048
ECCENTRICITY   = .0021392
INCLINATION    = 71.0143
RA_OF_ASC_NODE = 115.4657
ARG_OF_PERICENTER = 7.9457
MEAN_ANOMALY   = 352.2002

EPHEMERIS_TYPE = 0
CLASSIFICATION_TYPE = U
NORAD_CAT_ID   = 19120
ELEMENT_SET_NO = 999
REV_AT_EPOCH   = 95523
BSTAR          = .10861E-3
MEAN_MOTION_DOT = .182E-5
MEAN_MOTION_DDOT = 0

CCSDS_OMM_VERS = 2.0
CREATION_DATE  = 
ORIGINATOR     = 

OBJECT_NAME    = COSMOS 1953
OBJECT_ID      = 1988-050A
CENTER_NAME    = EARTH
REF_FRAME      = TEME
TIME_SYSTEM    = UTC
MEAN_ELEMENT_THEORY = SGP/SGP4

EPOCH          = 2026-02-15T10:18:51.557760
MEAN_MOTION    = 15.28082114
ECCENTRICITY   = .0011011
INCLINATION    = 82.5097
RA_OF_ASC_NODE = 180.6208
ARG_OF_PERICENTER = 197.8702
MEAN_ANOMALY   = 162.2152

EPHEMERIS_TYPE = 0
CLASSIFICATION_TYPE = U
NORAD_CAT_ID   = 19210
ELEMENT_SET_NO = 999
REV_AT_EPOCH   = 3438
BSTAR          = .43178E-3
MEAN_MOTION_DOT = .11878E-3
MEAN_MOTION_DDOT = 0

CCSDS_OMM_VERS = 2.0
CREATION_DATE  = 
ORIGINATOR     = 

OBJECT_NAME    = SL-8 R/B
OBJECT_ID      = 1988-053B
CENTER_NAME    = EARTH
REF_FRAME      = TEME
TIME_SYSTEM    = UTC
MEAN_ELEMENT_THEORY = SGP/SGP4

EPOCH          = 2026-02-15T11:32:05.371008
MEAN_MOTION    = 14.38902376
ECCENTRICITY   = .0020694
INCLINATION    = 74.0485
RA_OF_ASC_NODE = 153.4000
ARG_OF_PERICENTER = 336.6075
MEAN_ANOMALY   = 98.2353

EPHEMERIS_TYPE = 0
CLASSIFICATION_TYPE = U
NORAD_CAT_ID   = 19257
ELEMENT_SET_NO = 999
REV_AT_EPOCH   = 97340
BSTAR          = .98171E-4
MEAN_MOTION_DOT = .277E-5
MEAN_MOTION_DDOT = 0

CCSDS_OMM_VERS = 2.0
CREATION_DATE  = 
ORIGINATOR     = 

OBJECT_NAME    = COSMOS 1975
OBJECT_ID      = 1988-093A
CENTER_NAME    = EARTH
REF_FRAME      = TEME
TIME_SYSTEM    = UTC
MEAN_ELEMENT_THEORY = SGP/SGP4

EPOCH          = 2026-02-15T07:49:55.593696
MEAN_MOTION    = 15.27684786
ECCENTRICITY   = .0010393
INCLINATION    = 82.5225
RA_OF_ASC_NODE = 140.1224
ARG_OF_PERICENTER = 245.6564
MEAN_ANOMALY   = 114.3590

EPHEMERIS_TYPE = 0
CLASSIFICATION_TYPE = U
NORAD_CAT_ID   = 19573
ELEMENT_SET_NO = 999
REV_AT_EPOCH   = 1599
BSTAR          = .40761E-3
MEAN_MOTION_DOT = .11077E-3
MEAN_MOTION_DDOT = 0

CCSDS_OMM_VERS = 2.0
CREATION_DATE  = 
ORIGINATOR     = 

OBJECT_NAME    = SL-14 R/B
OBJECT_ID      = 1988-093B
CENTER_NAME    = EARTH
REF_FRAME      = TEME
TIME_SYSTEM    = UTC
MEAN_ELEMENT_THEORY = SGP/SGP4

EPOCH          = 2026-02-15T12:18:37.049184
MEAN_MOTION    = 14.85630450
ECCENTRICITY   = .0022251
INCLINATION    = 82.5278
RA_OF_ASC_NODE = 62.8674
ARG_OF_PERICENTER = 110.1742
MEAN_ANOMALY   = 2.8015

EPHEMERIS_TYPE = 0
CLASSIFICATION_TYPE = U
NORAD_CAT_ID   = 19574
ELEMENT_SET_NO = 999
REV_AT_EPOCH   = 99774
BSTAR          = .6117E-4
MEAN_MOTION_DOT = .557E-5
MEAN_MOTION_DDOT = 0

CCSDS_OMM_VERS = 2.0
CREATION_DATE  = 
ORIGINATOR     = 

OBJECT_NAME    = SL-16 R/B
OBJECT_ID      = 1988-102B
CENTER_NAME    = EARTH
REF_FRAME      = TEME
TIME_SYSTEM    = UTC
MEAN_ELEMENT_THEORY = SGP/SGP4

EPOCH          = 2026-02-15T12:19:38.243712
MEAN_MOTION    = 14.16151240
ECCENTRICITY   = .0012751
INCLINATION    = 70.9988
RA_OF_ASC_NODE = 198.1533
ARG_OF_PERICENTER = 37.3033
MEAN_ANOMALY   = 322.8973

EPHEMERIS_TYPE = 0
CLASSIFICATION_TYPE = U
NORAD_CAT_ID   = 19650
ELEMENT_SET_NO = 999
REV_AT_EPOCH   = 92375
BSTAR          = .11459E-3
MEAN_MOTION_DOT = .179E-5
MEAN_MOTION_DDOT = 0

CCSDS_OMM_VERS = 2.0
CREATION_DATE  = 
ORIGINATOR     = 

OBJECT_NAME    = INTERCOSMOS 24
OBJECT_ID      = 1989-080A
CENTER_NAME    = EARTH
REF_FRAME      = TEME
TIME_SYSTEM    = UTC
MEAN_ELEMENT_THEORY = SGP/SGP4

EPOCH          = 2026-02-15T07:47:13.186752
MEAN_MOTION    = 12.59525635
ECCENTRICITY   = .1187618
INCLINATION    = 82.6057
RA_OF_ASC_NODE = 118.9635
ARG_OF_PERICENTER = 344.7686
MEAN_ANOMALY   = 12.0339

EPHEMERIS_TYPE = 0
CLASSIFICATION_TYPE = U
NORAD_CAT_ID   = 20261
ELEMENT_SET_NO = 999
REV_AT_EPOCH   = 66398
BSTAR          = .17883E-3
MEAN_MOTION_DOT = .613E-5
MEAN_MOTION_DDOT = 0

CCSDS_OMM_VERS = 2.0
CREATION_DATE  = 
ORIGINATOR     = 

OBJECT_NAME    = SL-14 R/B
OBJECT_ID      = 1989-080C
CENTER_NAME    = EARTH
REF_FRAME      = TEME
TIME_SYSTEM    = UTC
MEAN_ELEMENT_THEORY = SGP/SGP4

EPOCH          = 2026-02-15T09:22:29.326944
MEAN_MOTION    = 12.50465049
ECCENTRICITY   = .1229607
INCLINATION    = 82.5955
RA_OF_ASC_NODE = 187.4994
ARG_OF_PERICENTER = 235.7316
MEAN_ANOMALY   = 112.1331

EPHEMERIS_TYPE = 0
CLASSIFICATION_TYPE = U
NORAD_CAT_ID   = 20262
ELEMENT_SET_NO = 999
REV_AT_EPOCH   = 65736
BSTAR          = .17444E-3
MEAN_MOTION_DOT = .578E-5
MEAN_MOTION_DDOT = 0

CCSDS_OMM_VERS = 2.0
CREATION_DATE  = 
ORIGINATOR     = 

OBJECT_NAME    = DELTA 1 R/B
OBJECT_ID      = 1989-089B
CENTER_NAME    = EARTH
REF_FRAME      = TEME
TIME_SYSTEM    = UTC
MEAN_ELEMENT_THEORY = SGP/SGP4

EPOCH          = 2026-02-15T11:30:12.317472
MEAN_MOTION    = 14.50644710
ECCENTRICITY   = .0068737
INCLINATION    = 97.0721
RA_OF_ASC_NODE = 257.4482
ARG_OF_PERICENTER = 191.7028
MEAN_ANOMALY   = 168.2576

EPHEMERIS_TYPE = 0
CLASSIFICATION_TYPE = U
NORAD_CAT_ID   = 20323
ELEMENT_SET_NO = 999
REV_AT_EPOCH   = 89251
BSTAR          = .11435E-3
MEAN_MOTION_DOT = .427E-5
MEAN_MOTION_DDOT = 0

CCSDS_OMM_VERS = 2.0
CREATION_DATE  = 
ORIGINATOR     = 

OBJECT_NAME    = ARIANE 40 R/B
OBJECT_ID      = 1990-005H
CENTER_NAME    = EARTH
REF_FRAME      = TEME
TIME_SYSTEM    = UTC
MEAN_ELEMENT_THEORY = SGP/SGP4

EPOCH          = 2026-02-15T03:49:24.573216
MEAN_MOTION    = 14.39854924
ECCENTRICITY   = .00088772
INCLINATION    = 98.3134
RA_OF_ASC_NODE = 107.4864
ARG_OF_PERICENTER = 272.1024
MEAN_ANOMALY   = 87.9148

EPHEMERIS_TYPE = 0
CLASSIFICATION_TYPE = U
NORAD_CAT_ID   = 20443
ELEMENT_SET_NO = 999
REV_AT_EPOCH   = 88956
BSTAR          = .91656736E-4
MEAN_MOTION_DOT = .245E-5
MEAN_MOTION_DDOT = 0

